{
  "type": "FeatureCollection",
  "features": [
    {
      "type": "Feature",
      "properties": {
        "trip_id": 1,
        "nama": "Trip 1",
        "asal": "Balaraja",
        "tujuan": "Jakarta",
        "jarak_km": 56.22,
        "durasi_menit": 41.3,
        "kecepatan_rata": 81.7,
        "routing_engine": "OSRM",
        "routing_profile": "driving"
      },
      "geometry": {
        "coordinates": [
          [
            106.486744,
            -6.200583
          ],
          [
            106.486642,
            -6.199797
          ],
          [
            106.486617,
            -6.199566
          ],
          [
            106.486616,
            -6.199339
          ],
          [
            106.48662,
            -6.199207
          ],
          [
            106.486656,
            -6.199026
          ],
          [
            106.48673,
            -6.198828
          ],
          [
            106.486821,
            -6.198691
          ],
          [
            106.48703,
            -6.198465
          ],
          [
            106.487204,
            -6.198343
          ],
          [
            106.487393,
            -6.198267
          ],
          [
            106.487588,
            -6.198216
          ],
          [
            106.487767,
            -6.198209
          ],
          [
            106.487989,
            -6.198242
          ],
          [
            106.488203,
            -6.198315
          ],
          [
            106.488432,
            -6.198457
          ],
          [
            106.489526,
            -6.199357
          ],
          [
            106.489732,
            -6.199497
          ],
          [
            106.489948,
            -6.199618
          ],
          [
            106.490134,
            -6.199693
          ],
          [
            106.490492,
            -6.199756
          ],
          [
            106.491827,
            -6.199875
          ],
          [
            106.492684,
            -6.200076
          ],
          [
            106.494347,
            -6.200371
          ],
          [
            106.496797,
            -6.20091
          ],
          [
            106.513535,
            -6.20463
          ],
          [
            106.516021,
            -6.204912
          ],
          [
            106.516505,
            -6.204968
          ],
          [
            106.517326,
            -6.205106
          ],
          [
            106.518055,
            -6.205178
          ],
          [
            106.518644,
            -6.205225
          ],
          [
            106.519245,
            -6.205256
          ],
          [
            106.519968,
            -6.205306
          ],
          [
            106.521893,
            -6.205336
          ],
          [
            106.523695,
            -6.205381
          ],
          [
            106.524988,
            -6.205375
          ],
          [
            106.528974,
            -6.205476
          ],
          [
            106.531158,
            -6.205603
          ],
          [
            106.533252,
            -6.205865
          ],
          [
            106.541951,
            -6.207386
          ],
          [
            106.5427,
            -6.207577
          ],
          [
            106.543039,
            -6.207665
          ],
          [
            106.543822,
            -6.207918
          ],
          [
            106.544644,
            -6.208245
          ],
          [
            106.545334,
            -6.208562
          ],
          [
            106.546258,
            -6.209081
          ],
          [
            106.546978,
            -6.209537
          ],
          [
            106.547604,
            -6.209982
          ],
          [
            106.548302,
            -6.21053
          ],
          [
            106.551294,
            -6.213228
          ],
          [
            106.553855,
            -6.215218
          ],
          [
            106.554931,
            -6.21592
          ],
          [
            106.555415,
            -6.216228
          ],
          [
            106.556434,
            -6.216833
          ],
          [
            106.557872,
            -6.217578
          ],
          [
            106.558246,
            -6.217766
          ],
          [
            106.560239,
            -6.218642
          ],
          [
            106.562111,
            -6.219317
          ],
          [
            106.562808,
            -6.219532
          ],
          [
            106.563067,
            -6.219606
          ],
          [
            106.565825,
            -6.220322
          ],
          [
            106.566181,
            -6.220396
          ],
          [
            106.567723,
            -6.220709
          ],
          [
            106.569659,
            -6.221011
          ],
          [
            106.571195,
            -6.221194
          ],
          [
            106.573921,
            -6.221445
          ],
          [
            106.582576,
            -6.222256
          ],
          [
            106.595798,
            -6.223476
          ],
          [
            106.605587,
            -6.224411
          ],
          [
            106.611878,
            -6.224969
          ],
          [
            106.613134,
            -6.225043
          ],
          [
            106.614482,
            -6.225065
          ],
          [
            106.615561,
            -6.225035
          ],
          [
            106.617193,
            -6.224909
          ],
          [
            106.618825,
            -6.224692
          ],
          [
            106.624323,
            -6.223913
          ],
          [
            106.629087,
            -6.223227
          ],
          [
            106.630778,
            -6.223011
          ],
          [
            106.631928,
            -6.222844
          ],
          [
            106.633439,
            -6.222657
          ],
          [
            106.634519,
            -6.222501
          ],
          [
            106.634755,
            -6.222463
          ],
          [
            106.635778,
            -6.222297
          ],
          [
            106.638748,
            -6.221865
          ],
          [
            106.639932,
            -6.221694
          ],
          [
            106.641272,
            -6.221504
          ],
          [
            106.643469,
            -6.221196
          ],
          [
            106.647407,
            -6.22064
          ],
          [
            106.651023,
            -6.220128
          ],
          [
            106.65938,
            -6.218942
          ],
          [
            106.660086,
            -6.218832
          ],
          [
            106.664594,
            -6.218184
          ],
          [
            106.665972,
            -6.217959
          ],
          [
            106.667844,
            -6.217576
          ],
          [
            106.669943,
            -6.217031
          ],
          [
            106.670852,
            -6.216755
          ],
          [
            106.67529,
            -6.215529
          ],
          [
            106.675701,
            -6.215413
          ],
          [
            106.68055,
            -6.214037
          ],
          [
            106.682107,
            -6.213644
          ],
          [
            106.682929,
            -6.21341
          ],
          [
            106.688192,
            -6.211924
          ],
          [
            106.688708,
            -6.211777
          ],
          [
            106.69253,
            -6.210692
          ],
          [
            106.69384,
            -6.210261
          ],
          [
            106.695237,
            -6.209698
          ],
          [
            106.695652,
            -6.209493
          ],
          [
            106.696657,
            -6.208979
          ],
          [
            106.697314,
            -6.2086
          ],
          [
            106.698395,
            -6.207914
          ],
          [
            106.69941,
            -6.207185
          ],
          [
            106.700682,
            -6.206204
          ],
          [
            106.706088,
            -6.201934
          ],
          [
            106.706525,
            -6.201592
          ],
          [
            106.707293,
            -6.201024
          ],
          [
            106.71063,
            -6.198403
          ],
          [
            106.711553,
            -6.197698
          ],
          [
            106.713528,
            -6.196177
          ],
          [
            106.713647,
            -6.196088
          ],
          [
            106.715629,
            -6.194483
          ],
          [
            106.716158,
            -6.194068
          ],
          [
            106.717273,
            -6.193216
          ],
          [
            106.718079,
            -6.192658
          ],
          [
            106.718546,
            -6.192362
          ],
          [
            106.718818,
            -6.192212
          ],
          [
            106.71955,
            -6.191861
          ],
          [
            106.72042,
            -6.191523
          ],
          [
            106.720958,
            -6.191347
          ],
          [
            106.722798,
            -6.19082
          ],
          [
            106.72323,
            -6.190726
          ],
          [
            106.723627,
            -6.190657
          ],
          [
            106.724016,
            -6.1906
          ],
          [
            106.724352,
            -6.190596
          ],
          [
            106.725082,
            -6.190615
          ],
          [
            106.725655,
            -6.190659
          ],
          [
            106.726243,
            -6.190743
          ],
          [
            106.728193,
            -6.191052
          ],
          [
            106.730481,
            -6.191325
          ],
          [
            106.731912,
            -6.19143
          ],
          [
            106.734414,
            -6.191454
          ],
          [
            106.737468,
            -6.191496
          ],
          [
            106.740471,
            -6.191531
          ],
          [
            106.744258,
            -6.191379
          ],
          [
            106.745774,
            -6.19129
          ],
          [
            106.746155,
            -6.191264
          ],
          [
            106.747541,
            -6.191174
          ],
          [
            106.748224,
            -6.191137
          ],
          [
            106.752031,
            -6.190925
          ],
          [
            106.756911,
            -6.19058
          ],
          [
            106.757361,
            -6.19054
          ],
          [
            106.761392,
            -6.190177
          ],
          [
            106.762723,
            -6.190091
          ],
          [
            106.764344,
            -6.190021
          ],
          [
            106.764466,
            -6.190019
          ],
          [
            106.765289,
            -6.190004
          ],
          [
            106.765832,
            -6.189994
          ],
          [
            106.768321,
            -6.18989
          ],
          [
            106.768938,
            -6.189852
          ],
          [
            106.769269,
            -6.189819
          ],
          [
            106.769683,
            -6.18977
          ],
          [
            106.769951,
            -6.189731
          ],
          [
            106.770209,
            -6.189683
          ],
          [
            106.770489,
            -6.189627
          ],
          [
            106.770781,
            -6.189554
          ],
          [
            106.771787,
            -6.189258
          ],
          [
            106.772686,
            -6.188954
          ],
          [
            106.779771,
            -6.18625
          ],
          [
            106.781726,
            -6.185595
          ],
          [
            106.782471,
            -6.185386
          ],
          [
            106.782815,
            -6.185314
          ],
          [
            106.783354,
            -6.185212
          ],
          [
            106.783779,
            -6.185152
          ],
          [
            106.784345,
            -6.185103
          ],
          [
            106.784666,
            -6.18509
          ],
          [
            106.787949,
            -6.185023
          ],
          [
            106.788429,
            -6.184993
          ],
          [
            106.788738,
            -6.184942
          ],
          [
            106.789003,
            -6.184878
          ],
          [
            106.789388,
            -6.184764
          ],
          [
            106.791271,
            -6.184049
          ],
          [
            106.791554,
            -6.183936
          ],
          [
            106.79179,
            -6.183814
          ],
          [
            106.792029,
            -6.183649
          ],
          [
            106.792202,
            -6.183503
          ],
          [
            106.792417,
            -6.183288
          ],
          [
            106.792826,
            -6.182758
          ],
          [
            106.792833,
            -6.18271
          ],
          [
            106.792835,
            -6.182683
          ],
          [
            106.792841,
            -6.18266
          ],
          [
            106.792846,
            -6.182651
          ],
          [
            106.79302,
            -6.182422
          ],
          [
            106.793141,
            -6.182241
          ],
          [
            106.793297,
            -6.181982
          ],
          [
            106.793521,
            -6.181638
          ],
          [
            106.793652,
            -6.181476
          ],
          [
            106.793954,
            -6.181098
          ],
          [
            106.793958,
            -6.181086
          ],
          [
            106.793978,
            -6.181037
          ],
          [
            106.794001,
            -6.180988
          ],
          [
            106.79401,
            -6.180972
          ],
          [
            106.794035,
            -6.180928
          ],
          [
            106.794104,
            -6.180828
          ],
          [
            106.794201,
            -6.180673
          ],
          [
            106.794283,
            -6.180529
          ],
          [
            106.794314,
            -6.180474
          ],
          [
            106.794417,
            -6.180308
          ],
          [
            106.794571,
            -6.18012
          ],
          [
            106.794723,
            -6.179935
          ],
          [
            106.794841,
            -6.179772
          ],
          [
            106.794937,
            -6.179616
          ],
          [
            106.795016,
            -6.179474
          ],
          [
            106.795072,
            -6.179325
          ],
          [
            106.795123,
            -6.179164
          ],
          [
            106.795145,
            -6.179025
          ],
          [
            106.795152,
            -6.17895
          ],
          [
            106.795161,
            -6.178798
          ],
          [
            106.795155,
            -6.178638
          ],
          [
            106.795123,
            -6.178465
          ],
          [
            106.795084,
            -6.178357
          ],
          [
            106.795035,
            -6.178243
          ],
          [
            106.794962,
            -6.178097
          ],
          [
            106.794731,
            -6.177849
          ],
          [
            106.793907,
            -6.177068
          ],
          [
            106.793306,
            -6.176492
          ],
          [
            106.792928,
            -6.17611
          ],
          [
            106.792909,
            -6.176084
          ],
          [
            106.792874,
            -6.176005
          ],
          [
            106.792316,
            -6.175492
          ],
          [
            106.792096,
            -6.175298
          ],
          [
            106.791148,
            -6.174417
          ],
          [
            106.790502,
            -6.173817
          ],
          [
            106.790266,
            -6.173588
          ],
          [
            106.790051,
            -6.173353
          ],
          [
            106.789874,
            -6.173167
          ],
          [
            106.789716,
            -6.172983
          ],
          [
            106.789552,
            -6.172788
          ],
          [
            106.789415,
            -6.172609
          ],
          [
            106.789297,
            -6.172449
          ],
          [
            106.789161,
            -6.17226
          ],
          [
            106.789018,
            -6.172047
          ],
          [
            106.788917,
            -6.17186
          ],
          [
            106.788777,
            -6.171623
          ],
          [
            106.788686,
            -6.171428
          ],
          [
            106.788552,
            -6.171116
          ],
          [
            106.788431,
            -6.170785
          ],
          [
            106.788326,
            -6.170481
          ],
          [
            106.788278,
            -6.170289
          ],
          [
            106.788225,
            -6.170063
          ],
          [
            106.788182,
            -6.169852
          ],
          [
            106.788136,
            -6.169487
          ],
          [
            106.788088,
            -6.169076
          ],
          [
            106.788072,
            -6.168729
          ],
          [
            106.788086,
            -6.168223
          ],
          [
            106.788112,
            -6.167972
          ],
          [
            106.788133,
            -6.167743
          ],
          [
            106.788179,
            -6.167492
          ],
          [
            106.788243,
            -6.16722
          ],
          [
            106.788257,
            -6.167167
          ],
          [
            106.788313,
            -6.166951
          ],
          [
            106.788359,
            -6.166764
          ],
          [
            106.788404,
            -6.166599
          ],
          [
            106.788477,
            -6.166369
          ],
          [
            106.78853,
            -6.166231
          ],
          [
            106.788605,
            -6.166039
          ],
          [
            106.788702,
            -6.165788
          ],
          [
            106.789287,
            -6.164439
          ],
          [
            106.789701,
            -6.163351
          ],
          [
            106.790407,
            -6.161687
          ],
          [
            106.790818,
            -6.16078
          ],
          [
            106.790982,
            -6.160419
          ],
          [
            106.791072,
            -6.160212
          ],
          [
            106.791463,
            -6.159304
          ],
          [
            106.791889,
            -6.158322
          ],
          [
            106.792572,
            -6.156749
          ],
          [
            106.793026,
            -6.155674
          ],
          [
            106.793315,
            -6.154987
          ],
          [
            106.793485,
            -6.154577
          ],
          [
            106.793533,
            -6.154457
          ],
          [
            106.793579,
            -6.154339
          ],
          [
            106.793685,
            -6.15401
          ],
          [
            106.793731,
            -6.153815
          ],
          [
            106.793756,
            -6.153656
          ],
          [
            106.793765,
            -6.153537
          ],
          [
            106.793779,
            -6.153418
          ],
          [
            106.793782,
            -6.153254
          ],
          [
            106.793779,
            -6.153104
          ],
          [
            106.793768,
            -6.152984
          ],
          [
            106.793749,
            -6.152843
          ],
          [
            106.793727,
            -6.152709
          ],
          [
            106.793696,
            -6.152559
          ],
          [
            106.793637,
            -6.152367
          ],
          [
            106.793544,
            -6.152125
          ],
          [
            106.793478,
            -6.151967
          ],
          [
            106.793387,
            -6.151769
          ],
          [
            106.792762,
            -6.150586
          ],
          [
            106.791989,
            -6.149122
          ],
          [
            106.790841,
            -6.14693
          ],
          [
            106.788859,
            -6.143217
          ],
          [
            106.787905,
            -6.141425
          ],
          [
            106.786721,
            -6.139147
          ],
          [
            106.786569,
            -6.138743
          ],
          [
            106.786431,
            -6.138295
          ],
          [
            106.786344,
            -6.138026
          ],
          [
            106.786274,
            -6.137779
          ],
          [
            106.786212,
            -6.137542
          ],
          [
            106.786179,
            -6.137359
          ],
          [
            106.786116,
            -6.137039
          ],
          [
            106.786056,
            -6.136767
          ],
          [
            106.785968,
            -6.136412
          ],
          [
            106.785922,
            -6.136208
          ],
          [
            106.785837,
            -6.135877
          ],
          [
            106.785824,
            -6.135824
          ],
          [
            106.78573,
            -6.135523
          ],
          [
            106.785536,
            -6.134895
          ],
          [
            106.785535,
            -6.134892
          ],
          [
            106.785346,
            -6.134278
          ],
          [
            106.785033,
            -6.13324
          ],
          [
            106.784903,
            -6.132816
          ],
          [
            106.78485,
            -6.132581
          ],
          [
            106.784811,
            -6.132346
          ],
          [
            106.784791,
            -6.132174
          ],
          [
            106.784795,
            -6.132077
          ],
          [
            106.784851,
            -6.131905
          ],
          [
            106.784918,
            -6.13174
          ],
          [
            106.785008,
            -6.131612
          ],
          [
            106.785111,
            -6.131508
          ],
          [
            106.785221,
            -6.131433
          ],
          [
            106.785331,
            -6.131369
          ],
          [
            106.785468,
            -6.131335
          ],
          [
            106.785626,
            -6.131306
          ],
          [
            106.785792,
            -6.131305
          ],
          [
            106.785972,
            -6.131327
          ],
          [
            106.786125,
            -6.13137
          ],
          [
            106.786278,
            -6.131421
          ],
          [
            106.787205,
            -6.131681
          ],
          [
            106.78808,
            -6.1319
          ],
          [
            106.789204,
            -6.132084
          ],
          [
            106.790322,
            -6.13224
          ],
          [
            106.7912,
            -6.132324
          ],
          [
            106.792125,
            -6.132379
          ],
          [
            106.793419,
            -6.132409
          ],
          [
            106.79408,
            -6.132398
          ],
          [
            106.795321,
            -6.132342
          ],
          [
            106.797087,
            -6.132188
          ],
          [
            106.798172,
            -6.132136
          ],
          [
            106.79866,
            -6.132124
          ],
          [
            106.798948,
            -6.13212
          ],
          [
            106.799713,
            -6.132123
          ],
          [
            106.800596,
            -6.132094
          ],
          [
            106.801025,
            -6.132066
          ],
          [
            106.80145,
            -6.13204
          ],
          [
            106.801835,
            -6.131999
          ],
          [
            106.80232,
            -6.131961
          ],
          [
            106.802411,
            -6.131956
          ],
          [
            106.802482,
            -6.131952
          ],
          [
            106.802571,
            -6.131947
          ],
          [
            106.802787,
            -6.131923
          ],
          [
            106.803468,
            -6.131829
          ],
          [
            106.804511,
            -6.131649
          ],
          [
            106.804997,
            -6.131564
          ],
          [
            106.805352,
            -6.131492
          ],
          [
            106.806045,
            -6.131345
          ],
          [
            106.807505,
            -6.130986
          ],
          [
            106.810012,
            -6.130327
          ],
          [
            106.810539,
            -6.130193
          ],
          [
            106.812838,
            -6.129603
          ],
          [
            106.813067,
            -6.129555
          ],
          [
            106.813314,
            -6.129519
          ],
          [
            106.813484,
            -6.129499
          ],
          [
            106.813577,
            -6.129491
          ],
          [
            106.813681,
            -6.129488
          ],
          [
            106.814036,
            -6.129483
          ],
          [
            106.814311,
            -6.129496
          ],
          [
            106.814585,
            -6.129526
          ],
          [
            106.814751,
            -6.129551
          ],
          [
            106.814935,
            -6.129587
          ],
          [
            106.815036,
            -6.129606
          ],
          [
            106.815366,
            -6.129706
          ],
          [
            106.815657,
            -6.129819
          ],
          [
            106.815756,
            -6.129865
          ],
          [
            106.816093,
            -6.130027
          ],
          [
            106.816305,
            -6.13014
          ],
          [
            106.816435,
            -6.130219
          ],
          [
            106.81655,
            -6.130285
          ],
          [
            106.816862,
            -6.130485
          ],
          [
            106.817176,
            -6.130688
          ],
          [
            106.817618,
            -6.130974
          ],
          [
            106.817917,
            -6.131165
          ],
          [
            106.818152,
            -6.131297
          ],
          [
            106.818255,
            -6.131352
          ],
          [
            106.81839,
            -6.131418
          ],
          [
            106.818621,
            -6.131522
          ],
          [
            106.81881,
            -6.131594
          ],
          [
            106.819015,
            -6.13166
          ],
          [
            106.819255,
            -6.13172
          ],
          [
            106.819469,
            -6.131771
          ],
          [
            106.819822,
            -6.131819
          ],
          [
            106.820069,
            -6.131839
          ],
          [
            106.820296,
            -6.131841
          ],
          [
            106.820469,
            -6.13184
          ],
          [
            106.820657,
            -6.131825
          ],
          [
            106.821011,
            -6.13177
          ],
          [
            106.821237,
            -6.131725
          ],
          [
            106.821415,
            -6.13163
          ],
          [
            106.82159,
            -6.131566
          ],
          [
            106.822073,
            -6.131407
          ],
          [
            106.822501,
            -6.1313
          ],
          [
            106.823295,
            -6.131139
          ],
          [
            106.824564,
            -6.13094
          ],
          [
            106.824776,
            -6.130918
          ],
          [
            106.824886,
            -6.130902
          ],
          [
            106.825067,
            -6.130868
          ],
          [
            106.825474,
            -6.130788
          ],
          [
            106.825649,
            -6.130756
          ],
          [
            106.82583,
            -6.130718
          ],
          [
            106.82621,
            -6.130648
          ],
          [
            106.827283,
            -6.130453
          ],
          [
            106.828216,
            -6.130284
          ],
          [
            106.828821,
            -6.130207
          ],
          [
            106.829272,
            -6.130094
          ],
          [
            106.829496,
            -6.130056
          ],
          [
            106.829553,
            -6.130137
          ],
          [
            106.829832,
            -6.130506
          ],
          [
            106.829879,
            -6.130553
          ],
          [
            106.829963,
            -6.130574
          ],
          [
            106.830007,
            -6.130569
          ],
          [
            106.830501,
            -6.130474
          ],
          [
            106.830798,
            -6.130421
          ],
          [
            106.830831,
            -6.130415
          ],
          [
            106.830859,
            -6.13041
          ],
          [
            106.830912,
            -6.130402
          ],
          [
            106.830979,
            -6.130392
          ],
          [
            106.831218,
            -6.13036
          ],
          [
            106.831327,
            -6.130344
          ],
          [
            106.831717,
            -6.130289
          ],
          [
            106.83205,
            -6.130235
          ],
          [
            106.833144,
            -6.130018
          ],
          [
            106.833389,
            -6.12997
          ],
          [
            106.834253,
            -6.129816
          ],
          [
            106.835228,
            -6.129644
          ],
          [
            106.837296,
            -6.129283
          ],
          [
            106.839425,
            -6.12891
          ],
          [
            106.840344,
            -6.128749
          ],
          [
            106.841521,
            -6.128525
          ],
          [
            106.843244,
            -6.128218
          ],
          [
            106.844368,
            -6.128015
          ],
          [
            106.844468,
            -6.127956
          ],
          [
            106.844529,
            -6.127883
          ],
          [
            106.844549,
            -6.127819
          ],
          [
            106.8445,
            -6.127445
          ],
          [
            106.844499,
            -6.12744
          ],
          [
            106.844499,
            -6.127437
          ],
          [
            106.844507,
            -6.127416
          ],
          [
            106.844526,
            -6.127387
          ],
          [
            106.844565,
            -6.12735
          ],
          [
            106.844613,
            -6.127316
          ],
          [
            106.844666,
            -6.127288
          ],
          [
            106.844731,
            -6.127264
          ],
          [
            106.844796,
            -6.127245
          ],
          [
            106.844885,
            -6.127227
          ],
          [
            106.845376,
            -6.127108
          ],
          [
            106.84546,
            -6.127082
          ],
          [
            106.84572,
            -6.126965
          ],
          [
            106.845806,
            -6.126941
          ],
          [
            106.8462,
            -6.126834
          ],
          [
            106.846636,
            -6.12675
          ],
          [
            106.846649,
            -6.126747
          ],
          [
            106.846895,
            -6.126643
          ],
          [
            106.846998,
            -6.12661
          ],
          [
            106.847444,
            -6.126531
          ],
          [
            106.847723,
            -6.126523
          ],
          [
            106.847941,
            -6.126529
          ],
          [
            106.848062,
            -6.12654
          ],
          [
            106.848112,
            -6.126536
          ],
          [
            106.848185,
            -6.126528
          ],
          [
            106.848449,
            -6.126475
          ],
          [
            106.849534,
            -6.126203
          ],
          [
            106.849682,
            -6.126163
          ],
          [
            106.850218,
            -6.12603
          ],
          [
            106.850438,
            -6.125991
          ],
          [
            106.851326,
            -6.125736
          ],
          [
            106.852214,
            -6.125458
          ],
          [
            106.853748,
            -6.124923
          ],
          [
            106.853767,
            -6.124918
          ],
          [
            106.853787,
            -6.124913
          ],
          [
            106.853852,
            -6.124896
          ],
          [
            106.853896,
            -6.124879
          ],
          [
            106.853995,
            -6.124833
          ],
          [
            106.854566,
            -6.12461
          ],
          [
            106.855738,
            -6.124056
          ],
          [
            106.855814,
            -6.12402
          ],
          [
            106.857773,
            -6.123107
          ],
          [
            106.857791,
            -6.123099
          ],
          [
            106.859712,
            -6.122246
          ],
          [
            106.859815,
            -6.122199
          ],
          [
            106.861014,
            -6.121604
          ],
          [
            106.861169,
            -6.121502
          ],
          [
            106.86136,
            -6.121286
          ],
          [
            106.861552,
            -6.121125
          ],
          [
            106.861727,
            -6.121026
          ],
          [
            106.861862,
            -6.120986
          ],
          [
            106.861966,
            -6.120962
          ],
          [
            106.862071,
            -6.120939
          ],
          [
            106.862632,
            -6.12085
          ],
          [
            106.862737,
            -6.120835
          ],
          [
            106.862754,
            -6.120949
          ],
          [
            106.862773,
            -6.121071
          ],
          [
            106.862855,
            -6.121595
          ],
          [
            106.862863,
            -6.121649
          ],
          [
            106.865234,
            -6.120558
          ],
          [
            106.866134,
            -6.119981
          ],
          [
            106.866255,
            -6.119896
          ],
          [
            106.86639,
            -6.119793
          ],
          [
            106.866719,
            -6.119538
          ],
          [
            106.866777,
            -6.119494
          ],
          [
            106.867142,
            -6.119221
          ],
          [
            106.867838,
            -6.118642
          ],
          [
            106.867975,
            -6.118528
          ],
          [
            106.868497,
            -6.118125
          ],
          [
            106.869109,
            -6.117619
          ],
          [
            106.869745,
            -6.117079
          ],
          [
            106.869812,
            -6.117021
          ],
          [
            106.86994,
            -6.116913
          ],
          [
            106.870775,
            -6.116247
          ],
          [
            106.871196,
            -6.115901
          ],
          [
            106.871282,
            -6.11583
          ],
          [
            106.871629,
            -6.115549
          ],
          [
            106.872268,
            -6.115026
          ],
          [
            106.872302,
            -6.114998
          ],
          [
            106.873502,
            -6.113998
          ],
          [
            106.873653,
            -6.113872
          ],
          [
            106.87373,
            -6.11381
          ],
          [
            106.874461,
            -6.113191
          ],
          [
            106.874971,
            -6.112735
          ],
          [
            106.875542,
            -6.1123
          ],
          [
            106.876052,
            -6.111954
          ],
          [
            106.876539,
            -6.11171
          ],
          [
            106.876604,
            -6.111674
          ],
          [
            106.877778,
            -6.11118
          ],
          [
            106.87874,
            -6.110768
          ],
          [
            106.879111,
            -6.110601
          ],
          [
            106.879335,
            -6.110491
          ],
          [
            106.879472,
            -6.110414
          ],
          [
            106.880071,
            -6.109999
          ],
          [
            106.880545,
            -6.109599
          ],
          [
            106.880669,
            -6.109548
          ],
          [
            106.88074,
            -6.109496
          ],
          [
            106.880933,
            -6.109453
          ],
          [
            106.881075,
            -6.109439
          ],
          [
            106.881179,
            -6.109433
          ],
          [
            106.881414,
            -6.109438
          ],
          [
            106.881487,
            -6.109439
          ],
          [
            106.882673,
            -6.109485
          ],
          [
            106.882883,
            -6.109502
          ],
          [
            106.882942,
            -6.109513
          ],
          [
            106.883754,
            -6.109741
          ],
          [
            106.883902,
            -6.109786
          ],
          [
            106.883965,
            -6.109806
          ],
          [
            106.884065,
            -6.109827
          ],
          [
            106.884174,
            -6.10984
          ],
          [
            106.884282,
            -6.109844
          ],
          [
            106.884626,
            -6.109855
          ],
          [
            106.887163,
            -6.109924
          ],
          [
            106.888491,
            -6.109966
          ],
          [
            106.889403,
            -6.109997
          ],
          [
            106.889765,
            -6.110004
          ],
          [
            106.889809,
            -6.110004
          ],
          [
            106.889851,
            -6.110004
          ],
          [
            106.891937,
            -6.110052
          ],
          [
            106.892466,
            -6.110064
          ],
          [
            106.892798,
            -6.110069
          ],
          [
            106.892825,
            -6.11007
          ],
          [
            106.892889,
            -6.110071
          ],
          [
            106.893052,
            -6.110075
          ],
          [
            106.893083,
            -6.110082
          ],
          [
            106.89311,
            -6.110098
          ],
          [
            106.893125,
            -6.110121
          ],
          [
            106.893133,
            -6.110172
          ],
          [
            106.893131,
            -6.110273
          ],
          [
            106.893124,
            -6.11051
          ],
          [
            106.893112,
            -6.111253
          ],
          [
            106.893107,
            -6.111661
          ],
          [
            106.893102,
            -6.111955
          ],
          [
            106.893104,
            -6.112287
          ],
          [
            106.893175,
            -6.112381
          ],
          [
            106.893208,
            -6.112449
          ],
          [
            106.893266,
            -6.112584
          ],
          [
            106.89326,
            -6.112763
          ],
          [
            106.893246,
            -6.113213
          ],
          [
            106.893236,
            -6.113574
          ],
          [
            106.893238,
            -6.113671
          ],
          [
            106.893237,
            -6.113741
          ],
          [
            106.893232,
            -6.113944
          ],
          [
            106.893232,
            -6.114019
          ],
          [
            106.893231,
            -6.11408
          ],
          [
            106.89323,
            -6.114227
          ],
          [
            106.893239,
            -6.114624
          ],
          [
            106.893243,
            -6.114771
          ],
          [
            106.893248,
            -6.114865
          ],
          [
            106.893248,
            -6.115156
          ],
          [
            106.893248,
            -6.115217
          ],
          [
            106.893249,
            -6.115221
          ],
          [
            106.893252,
            -6.115327
          ],
          [
            106.89328,
            -6.115729
          ],
          [
            106.893291,
            -6.115954
          ],
          [
            106.893312,
            -6.116311
          ],
          [
            106.893317,
            -6.11641
          ],
          [
            106.893335,
            -6.116675
          ],
          [
            106.893346,
            -6.116913
          ],
          [
            106.893356,
            -6.117064
          ],
          [
            106.893359,
            -6.117244
          ],
          [
            106.893422,
            -6.117471
          ],
          [
            106.893455,
            -6.118056
          ],
          [
            106.893465,
            -6.118273
          ],
          [
            106.893477,
            -6.118376
          ],
          [
            106.893493,
            -6.118445
          ],
          [
            106.893514,
            -6.118538
          ],
          [
            106.893584,
            -6.11888
          ],
          [
            106.893622,
            -6.119189
          ],
          [
            106.893636,
            -6.119484
          ],
          [
            106.893629,
            -6.119652
          ],
          [
            106.893624,
            -6.120129
          ],
          [
            106.893602,
            -6.120293
          ],
          [
            106.893593,
            -6.120548
          ],
          [
            106.893591,
            -6.120691
          ],
          [
            106.893601,
            -6.121079
          ],
          [
            106.893605,
            -6.121562
          ]
        ],
        "type": "LineString"
      }
    }
  ]
}