{"type": "FeatureCollection", "name": "titik_ujung", "crs": {"type": "name", "properties": {"name": "urn:ogc:def:crs:OGC:1.3:CRS84"}}, "features": [{"type": "Feature", "properties": {"trip_id": 1, "jenis": "Titik Awal", "hari": "Senin", "waktu": "03-03-2025 08:03", "jarak_km": 57.01, "liter_total": 5.39, "biaya_rp": 53912}, "geometry": {"type": "Point", "coordinates": [106.893611, -6.121562]}}, {"type": "Feature", "properties": {"trip_id": 1, "jenis": "Titik Akhir", "hari": "Senin", "waktu": "03-03-2025 09:53", "jarak_km": 57.01, "liter_total": 5.39, "biaya_rp": 53912}, "geometry": {"type": "Point", "coordinates": [106.486745, -6.200583]}}, {"type": "Feature", "properties": {"trip_id": 2, "jenis": "Titik Awal", "hari": "Senin", "waktu": "03-03-2025 12:17", "jarak_km": 57.13, "liter_total": 4.85, "biaya_rp": 48455}, "geometry": {"type": "Point", "coordinates": [106.893506, -6.119932]}}, {"type": "Feature", "properties": {"trip_id": 2, "jenis": "Titik Akhir", "hari": "Senin", "waktu": "03-03-2025 13:28", "jarak_km": 57.13, "liter_total": 4.85, "biaya_rp": 48455}, "geometry": {"type": "Point", "coordinates": [106.486745, -6.200583]}}, {"type": "Feature", "properties": {"trip_id": 3, "jenis": "Titik Awal", "hari": "Senin", "waktu": "03-03-2025 16:29", "jarak_km": 56.91, "liter_total": 5.77, "biaya_rp": 57671}, "geometry": {"type": "Point", "coordinates": [106.487085, -6.198449]}}, {"type": "Feature", "properties": {"trip_id": 3, "jenis": "Titik Akhir", "hari": "Senin", "waktu": "03-03-2025 18:41", "jarak_km": 56.91, "liter_total": 5.77, "biaya_rp": 57671}, "geometry": {"type": "Point", "coordinates": [106.89393, -6.122838]}}]}